OBJECT_NAME,OBJECT_ID,EPOCH,MEAN_MOTION,ECCENTRICITY,INCLINATION,RA_OF_ASC_NODE,ARG_OF_PERICENTER,MEAN_ANOMALY,EPHEMERIS_TYPE,CLASSIFICATION_TYPE,NORAD_CAT_ID,ELEMENT_SET_NO,REV_AT_EPOCH,BSTAR,MEAN_MOTION_DOT,MEAN_MOTION_DDOT
ALOS-2,2014-029A,2026-07-03T15:23:53.204064,14.79475228,.00016482,97.9233,281.5701,89.5622,270.5778,0,U,39766,999,65401,.2127317E-3,.1538E-4,0
KAZEOSAT 2,2014-033A,2026-07-03T15:58:50.118240,14.85490298,.00069394,97.5394,23.4062,265.7873,94.2550,0,U,40010,999,65140,.83930801E-4,.674E-5,0
HODOYOSHI-4,2014-033B,2026-07-03T15:24:45.088128,14.88163291,.00220992,97.5450,8.6701,250.4136,109.4695,0,U,40011,999,65125,.89331368E-4,.774E-5,0
DEIMOS-2,2014-033D,2026-07-03T15:53:21.312672,14.93768554,.0000887,97.5801,58.5703,76.4355,283.6964,0,U,40013,999,64018,.15283586E-3,.1565E-4,0
HODOYOSHI-3,2014-033F,2026-07-02T09:49:03.952128,14.85418387,.0031571,97.6433,345.8382,306.0133,53.8157,0,U,40015,999,64988,.12818E-3,.1061E-4,0
SPOT 7,2014-034A,2026-07-03T16:29:47.739840,14.60973592,.00014538,98.0621,246.7538,95.0954,265.0413,0,U,40053,999,63954,.14763818E-3,.678E-5,0
SKYSAT-B,2014-037D,2026-07-02T20:38:22.529472,14.88068363,.00046097,98.3846,143.7192,216.2246,143.8657,0,U,40072,999,64829,.17732833E-3,.1569E-4,0
WORLDVIEW-3 (WV-3),2014-048A,2026-07-02T19:11:14.853408,14.85048247,.00002951,97.8562,258.4167,168.9876,191.1346,0,U,40115,999,64422,.12649028E-3,.1027E-4,0
GAOFEN-2,2014-049A,2026-07-03T15:54:23.532768,14.80916406,.00073192,98.0101,248.8540,169.0856,191.0516,0,U,40118,999,64167,.1047325E-3,.756E-5,0
YAOGAN-21,2014-053A,2026-07-03T16:21:42.797376,15.26620310,.00092151,97.1459,224.2106,45.1782,315.0205,0,U,40143,999,65747,.29556568E-3,.7684E-4,0
YAOGAN-22,2014-063A,2026-07-02T16:48:08.856864,13.15531196,.00066695,100.7745,335.2322,151.5172,208.6305,0,U,40275,999,56185,.3373502E-5,-.46E-6,0
ASNARO,2014-070A,2026-07-03T16:30:36.251712,15.19685983,.00065985,97.3445,260.3582,117.8043,242.3862,0,U,40298,999,64651,.48966919E-3,.10397E-3,0
YAOGAN-24,2014-072A,2026-07-03T14:54:51.356736,14.76107764,.00136961,98.1515,322.0986,207.3652,152.6837,0,U,40310,999,62614,.19334231E-3,.1283E-4,0
CBERS 4,2014-079A,2026-07-03T16:42:10.232064,14.35514212,.00013118,98.3522,241.0092,49.9619,310.1682,0,U,40336,999,60632,.10761902E-3,.267E-5,0
YAOGAN-26,2014-088A,2026-07-03T16:27:05.072832,15.48017299,.00037794,97.0639,184.5148,27.7596,332.3856,0,U,40362,999,64025,.23291901E-3,.12097E-3,0
SMAP,2015-003A,2026-07-02T19:21:11.602656,14.63380832,.00014832,98.1277,190.6796,97.6304,262.5066,0,U,40376,999,60990,.11126262E-3,.528E-5,0
KOMPSAT-3A,2015-014A,2026-07-03T15:47:21.215616,15.54840056,.00571523,97.6889,177.2338,116.1099,244.6051,0,U,40536,999,62437,.43857352E-3,.31395E-3,0
SENTINEL-2A,2015-028A,2026-07-03T15:33:29.469600,14.30820760,.00012185,98.5683,259.2663,94.4938,265.6385,0,U,40697,999,57608,.13368185E-3,.307E-5,0
GAOFEN-8,2015-030A,2026-07-03T15:42:58.479264,15.46568622,.00097639,97.6892,19.0193,130.9934,229.2161,0,U,40701,999,61399,.51643474E-3,.25686E-3,0
CARBONITE 1 (CBNT-1),2015-032D,2026-07-03T15:20:09.352032,14.83636626,.0013091,97.6509,2.0165,238.1297,121.8644,0,U,40718,999,59178,.20375365E-3,.1633E-4,0
YAOGAN-27,2015-040A,2026-07-03T16:15:02.913984,13.16070799,.00081613,100.1160,170.3447,171.0891,189.0369,0,U,40878,999,51983,-.61441168E-3,-.276E-5,0
GAOFEN-9 01,2015-047A,2026-07-03T15:53:11.327424,14.82917206,.00288898,97.6268,219.6077,86.4071,274.0447,0,U,40894,999,58263,.15266183E-3,.1196E-4,0
YAOGAN-28,2015-064A,2026-07-03T15:13:16.398912,15.27635215,.00118262,97.3101,322.5641,128.8830,231.3467,0,U,41026,999,59319,.28809118E-3,.7726E-4,0
YAOGAN-29,2015-069A,2026-07-03T15:21:31.977216,14.83099919,.00016776,98.0016,213.2984,28.8098,331.3208,0,U,41038,999,57306,.11530484E-3,.885E-5,0
KENT RIDGE 1,2015-077B,2026-07-03T00:15:11.304864,15.23225865,.00081592,14.9784,148.2979,102.6846,257.4388,0,U,41167,999,58351,.15866357E-3,.4639E-4,0
GAOFEN-4,2015-083A,2026-07-03T21:16:53.001984,1.00273340,.0004183,0.3979,83.8999,117.0638,145.8621,0,U,41194,999,3869,0,-.323E-5,0
JASON-3,2016-002A,2026-07-02T20:20:17.132928,12.87623298,.00083092,66.0417,92.9125,271.8737,88.1330,0,U,41240,999,48926,.10633264E-3,-.35E-6,0
SENTINEL-3A,2016-011A,2026-07-02T18:50:58.903872,14.26737056,.00014254,98.6243,250.9446,94.5446,265.5897,0,U,41335,999,54028,.74150885E-4,.136E-5,0
ZIYUAN 3-02 (ZY 3-02),2016-033A,2026-07-03T16:47:28.440672,15.21339621,.00129288,97.3829,260.1564,226.7636,133.2521,0,U,41556,999,56049,.27589738E-3,.6123E-4,0
CARTOSAT-2C,2016-040A,2026-07-04T02:51:55.808352,15.19196005,.0010159,97.4470,244.8642,78.8288,281.4088,0,U,41599,999,55628,.2812E-3,.5857E-4,0
