ALOS-2                  
1 39766U 14029A   26184.64158801  .00001538  00000+0  21273-3 0  9995
2 39766  97.9233 281.5701 0001648  89.5622 270.5778 14.79475228654012
KAZEOSAT 2              
1 40010U 14033A   26184.66585785  .00000674  00000+0  83931-4 0  9991
2 40010  97.5394  23.4062 0006939 265.7873  94.2550 14.85490298651407
HODOYOSHI-4             
1 40011U 14033B   26184.64218852  .00000774  00000+0  89331-4 0  9999
2 40011  97.5450   8.6701 0022099 250.4136 109.4695 14.88163291651259
DEIMOS-2                
1 40013U 14033D   26184.66205223  .00001565  00000+0  15284-3 0  9995
2 40013  97.5801  58.5703 0000887  76.4355 283.6964 14.93768554640180
HODOYOSHI-3             
1 40015U 14033F   26183.40907352  .00001061  00000+0  12818-3 0  9991
2 40015  97.6433 345.8382 0031571 306.0133  53.8157 14.85418387649883
SPOT 7                  
1 40053U 14034A   26184.68735810  .00000678  00000+0  14764-3 0  9998
2 40053  98.0621 246.7538 0001453  95.0954 265.0413 14.60973592639544
SKYSAT-B                
1 40072U 14037D   26183.85998298  .00001569  00000+0  17733-3 0  9990
2 40072  98.3846 143.7192 0004609 216.2246 143.8657 14.88068363648292
WORLDVIEW-3 (WV-3)      
1 40115U 14048A   26183.79947747  .00001027  00000+0  12649-3 0  9996
2 40115  97.8562 258.4167 0000295 168.9876 191.1346 14.85048247644220
GAOFEN-2                
1 40118U 14049A   26184.66277237  .00000756  00000+0  10473-3 0  9998
2 40118  98.0101 248.8540 0007319 169.0856 191.0516 14.80916406641677
YAOGAN-21               
1 40143U 14053A   26184.68174534  .00007684  00000+0  29557-3 0  9999
2 40143  97.1459 224.2106 0009215  45.1782 315.0205 15.26620310657471
YAOGAN-22               
1 40275U 14063A   26183.70010251 -.00000046  00000+0  33735-5 0  9994
2 40275 100.7745 335.2322 0006669 151.5172 208.6305 13.15531196561857
ASNARO                  
1 40298U 14070A   26184.68791958  .00010397  00000+0  48967-3 0  9995
2 40298  97.3445 260.3582 0006598 117.8043 242.3862 15.19685983646519
YAOGAN-24               
1 40310U 14072A   26184.62142774  .00001283  00000+0  19334-3 0  9992
2 40310  98.1515 322.0986 0013696 207.3652 152.6837 14.76107764626143
CBERS 4                 
1 40336U 14079A   26184.69595176  .00000267  00000+0  10762-3 0  9999
2 40336  98.3522 241.0092 0001311  49.9619 310.1682 14.35514212606325
YAOGAN-26               
1 40362U 14088A   26184.68547538  .00012097  00000+0  23292-3 0  9992
2 40362  97.0639 184.5148 0003779  27.7596 332.3856 15.48017299640257
SMAP                    
1 40376U 15003A   26183.80638429  .00000528  00000+0  11126-3 0  9997
2 40376  98.1277 190.6796 0001483  97.6304 262.5066 14.63380832609908
KOMPSAT-3A              
1 40536U 15014A   26184.65788444  .00031395  00000+0  43857-3 0  9996
2 40536  97.6889 177.2338 0057152 116.1099 244.6051 15.54840056624377
SENTINEL-2A             
1 40697U 15028A   26184.64825775  .00000307  00000+0  13368-3 0  9990
2 40697  98.5683 259.2663 0001218  94.4938 265.6385 14.30820760576081
GAOFEN-8                
1 40701U 15030A   26184.65484351  .00025686  00000+0  51643-3 0  9996
2 40701  97.6892  19.0193 0009763 130.9934 229.2161 15.46568622613998
CARBONITE 1 (CBNT-1)    
1 40718U 15032D   26184.63899713  .00001633  00000+0  20375-3 0  9990
2 40718  97.6509   2.0165 0013091 238.1297 121.8644 14.83636626591789
YAOGAN-27               
1 40878U 15040A   26184.67711706 -.00000276  00000+0 -61441-3 0  9998
2 40878 100.1160 170.3447 0008161 171.0891 189.0369 13.16070799519832
GAOFEN-9 01             
1 40894U 15047A   26184.66193666  .00001196  00000+0  15266-3 0  9995
2 40894  97.6268 219.6077 0028889  86.4071 274.0447 14.82917206582630
YAOGAN-28               
1 41026U 15064A   26184.63421758  .00007726  00000+0  28809-3 0  9997
2 41026  97.3101 322.5641 0011826 128.8830 231.3467 15.27635215593197
YAOGAN-29               
1 41038U 15069A   26184.63995344  .00000885  00000+0  11530-3 0  9994
2 41038  98.0016 213.2984 0001677  28.8098 331.3208 14.83099919573061
KENT RIDGE 1            
1 41167U 15077B   26184.01054751  .00004639  00000+0  15866-3 0  9993
2 41167  14.9784 148.2979 0008159 102.6846 257.4388 15.23225865583512
GAOFEN-4                
1 41194U 15083A   26184.88672456 -.00000323  00000+0  00000+0 0  9990
2 41194   0.3979  83.8999 0004183 117.0638 145.8621  1.00273340 38690
JASON-3                 
1 41240U 16002A   26183.84742052 -.00000035  00000+0  10633-3 0  9996
2 41240  66.0417  92.9125 0008309 271.8737  88.1330 12.87623298489260
SENTINEL-3A             
1 41335U 16011A   26183.78540398  .00000136  00000+0  74151-4 0  9990
2 41335  98.6243 250.9446 0001425  94.5446 265.5897 14.26737056540286
ZIYUAN 3-02 (ZY 3-02)   
1 41556U 16033A   26184.69963473  .00006123  00000+0  27590-3 0  9999
2 41556  97.3829 260.1564 0012928 226.7636 133.2521 15.21339621560493
CARTOSAT-2C             
1 41599U 16040A   26185.11939593  .00005857  00000+0  28120-3 0  9991
2 41599  97.4470 244.8642 0010159  78.8288 281.4088 15.19196005556282
